satname,norad_id,inclination_deg,eccentricity,mean_motion_rev_per_day,perigee_km,apogee_km,l1,l2
STARLINK-1132,45044,53.0563,0.0001137,15.06416823,546.3725920773568,547.9474046147798,1 45044U 20006A   25250.07143494  .00005332  00000+0  37639-3 0  9994,2 45044  53.0563  10.9107 0001137  94.0772 266.0347 15.06416823309062
STARLINK-1131,45047,53.0563,0.0001255,15.06402037,546.3361843731827,548.0744452942063,1 45047U 20006D   25250.11390232  .00002214  00000+0  16744-3 0  9996,2 45047  53.0563  31.2605 0001255  84.6732 275.4401 15.06402037308781
STARLINK-1134,45048,53.0458,0.0005196,15.22584199,494.4763428850738,501.62207559371564,1 45048U 20006E   25250.08113493  .00084411  00000+0  35597-2 0  9990,2 45048  53.0458  16.3060 0005196 326.2428  33.8237 15.22584199308993
STARLINK-1156,45054,53.0559,9.42e-05,15.06401557,546.5544185769986,547.8591533462732,1 45054U 20006L   25250.08434733  .00000636  00000+0  61581-4 0  9991,2 45054  53.0559  30.8565 0000942  75.5918 284.5176 15.06401557308787
STARLINK-1159,45057,53.0549,0.0001229,15.0640022,546.3597584151421,548.0620089249487,1 45057U 20006P   25250.09909296  .00000905  00000+0  79618-4 0  9995,2 45057  53.0549  30.7894 0001229  94.6312 265.4818 15.06400220308790
STARLINK-1166,45060,53.0556,0.0001196,15.0642655,546.301925251706,547.9584491628875,1 45060U 20006S   25250.11015181  .00006753  00000+0  47146-3 0  9990,2 45060  53.0556  30.7412 0001196  86.3455 273.7671 15.06426550308790
STARLINK-1169,45061,53.0558,0.0001253,15.06393825,546.3627349428834,548.0982320342464,1 45061U 20006T   25250.11752837 -.00000197  00000+0  56503-5 0  9993,2 45061  53.0558  30.7083 0001253  92.0582 268.0551 15.06393825308798
STARLINK-1171,45062,53.0568,0.0001383,15.06406753,546.2330882000224,548.148633886386,1 45062U 20006U   25250.10277922  .00001204  00000+0  99664-4 0  9993,2 45062  53.0568  30.7702 0001383  90.6527 269.4620 15.06406753308792
STARLINK-1133,45064,53.0558,0.0001297,15.06400213,546.3126875007374,548.1091227473271,1 45064U 20006W   25250.04933904  .00005283  00000+0  37332-3 0  9991,2 45064  53.0558  11.0093 0001297  84.9678 275.1459 15.06400213309065
STARLINK-1150,45067,53.0457,0.0003881,15.88467889,303.9834362632573,309.1721118708874,1 45067U 20006Z   25250.25001157  .00319294  00000+0  10862-2 0  9991,2 45067  53.0457 324.4384 0003881 303.8142  98.7145 15.88467889  5998
STARLINK-1167,45071,53.0571,0.0001676,15.06421088,545.9862494233084,548.3076045956423,1 45071U 20006AD  25250.07514181  .00003871  00000+0  27849-3 0  9997,2 45071  53.0571  10.8979 0001676  73.4880 286.6293 15.06421088309063
STARLINK-1168,45072,53.0557,0.0001313,15.06427264,546.2187116709101,548.0372862596387,1 45072U 20006AE  25250.07881672  .00005598  00000+0  39414-3 0  9999,2 45072  53.0557  10.8804 0001313  92.2345 267.8795 15.06427264309068
STARLINK-1172,45074,53.0558,0.0001364,15.06421671,546.2005317567791,548.0897487246366,1 45074U 20006AG  25249.62545181  .00011375  00000+0  78082-3 0  9996,2 45074  53.0558  12.9156 0001364  68.4294 291.6841 15.06421671308992
STARLINK-1153,45080,53.0554,0.0001351,15.06422331,546.2075121411308,548.0787228288755,1 45080U 20006AN  25250.06777708  .00011432  00000+0  78463-3 0  9992,2 45080  53.0554  10.9314 0001351  82.2240 277.8903 15.06422331309068
STARLINK-1151,45081,53.0564,0.0001525,15.06408309,546.1299803954917,548.242203938602,1 45081U 20006AP  25250.05302690  .00005033  00000+0  35647-3 0  9993,2 45081  53.0564  11.0699 0001525  81.8407 278.2755 15.06408309309060
STARLINK-1190,45083,53.0527,0.0006463,15.70556617,352.9520287455316,361.65826126216416,1 45083U 20006AR  25250.00928724  .00123878  00000+0  97618-3 0  9996,2 45083  53.0527 350.1316 0006463 345.3363  14.7465 15.70556617309359
STARLINK-1173,45084,53.0485,0.0010102,15.77128316,331.7963937055347,345.3668520111578,1 45084U 20006AS  25250.25001157  .00131704  00000+0  77998-3 0  9992,2 45084  53.0485 313.6569 0010102 318.2043 166.7747 15.77128316  5965
STARLINK-1179,45085,53.0432,0.0006235,15.8746609,305.2201449630884,313.5594909050533,1 45085U 20006AT  25250.25001157  .00273295  00000+0  98176-3 0  9996,2 45085  53.0432 305.4587 0006235 325.2809 271.2907 15.87466090  6042
STARLINK-1185,45087,53.0542,0.0001493,15.06392923,546.1992902308912,548.2672057869459,1 45087U 20006AV  25250.29445672 -.00000144  00000+0  92272-5 0  9991,2 45087  53.0542 349.9115 0001493  78.6778 281.4379 15.06392923309384
STARLINK-1183,45088,53.055,8.46e-05,15.06414882,546.5800664978497,547.7518277565041,1 45088U 20006AW  25249.98482137  .00001689  00000+0  13217-3 0  9997,2 45088  53.0550 351.3032 0000846  90.1589 269.9497 15.06414882309335
STARLINK-1176,45090,53.0507,0.0005951,15.74847515,341.064152613234,349.06610778859886,1 45090U 20006AY  25250.25001157  .00136595  00000+0  89519-3 0  9994,2 45090  53.0507 311.1291 0005951 293.7242 108.0614 15.74847515  6011
STARLINK-1142,45093,53.0405,0.0006028,15.48270024,417.6876748452396,425.8856628203848,1 45093U 20006BB  25250.17148492  .00073659  00000+0  13680-2 0  9998,2 45093  53.0405 302.1097 0006028   8.3379 351.7727 15.48270024310041
STARLINK-1146,45094,53.0498,0.0006797,15.8804985,303.2064496378607,312.29524557789864,1 45094U 20006BC  25250.25001157  .00310948  00000+0  10801-2 0  9991,2 45094  53.0498 306.6228 0006797 318.4940 199.3354 15.88049850  6040
STARLINK-1147,45095,53.0443,0.0009586,15.86157483,306.65333954975995,319.4817168712452,1 45095U 20006BD  25250.25001157  .00252803  00000+0  96885-3 0  9994,2 45095  53.0443 309.1426 0009586 327.4673 319.9346 15.86157483  5940
STARLINK-1152,45096,53.0542,0.0004108,15.20109365,502.6826266967464,508.33823142446363,1 45096U 20006BE  25249.95438222  .00030801  00000+0  14164-2 0  9998,2 45096  53.0542 339.6056 0004108  13.9575 346.1533 15.20109365309492
STARLINK-1184,45098,53.0557,0.0002452,15.06400051,545.5133062025479,548.9094970587075,1 45098U 20006BG  25250.26496651  .00000211  00000+0  33121-4 0  9994,2 45098  53.0557 350.0446 0002452  80.1035 280.0231 15.06400051309375
STARLINK-1193,45100,53.0561,0.0001831,15.06383533,545.9939868194315,548.5300679432585,1 45100U 20006BJ  25250.26128156 -.00004602  00000+0 -29034-3 0  9997,2 45100  53.0561 350.0618 0001831 100.1509 259.9686 15.06383533309378
STARLINK-1143,45179,53.0568,0.0004898,15.31849571,466.9398065506375,473.64852972294466,1 45179U 20012B   25250.05971833  .00090532  00000+0  28795-2 0  9992,2 45179  53.0568 126.0405 0004898 101.7652 258.3898 15.31849571307517
STARLINK-1200,45181,53.0376,0.0006066,16.17426106,222.54311040636367,230.5559160842322,1 45181U 20012D   25250.12126422  .01340577  14243-2  84290-3 0  9997,2 45181  53.0376 100.8411 0006066 269.6084  90.4257 16.17426106307868
STARLINK-1201,45182,53.038,0.0002007,15.98401187,277.5180837598855,280.19020000423643,1 45182U 20012E   25250.25001157  .00415634  83307-4  87273-3 0  9998,2 45182  53.0380  81.1337 0002007  87.6097 101.7523 15.98401187  6076
STARLINK-1202,45183,53.0548,0.0001367,15.06394222,546.2825691640346,548.1759643013593,1 45183U 20012F   25250.12491063  .00000605  00000+0  59521-4 0  9992,2 45183  53.0548 150.6715 0001367  99.8329 260.2814 15.06394222307175
STARLINK-1216,45185,53.0538,9.57e-05,15.06400321,546.5478183568412,547.8733298825273,1 45185U 20012H   25250.11752594  .00003964  00000+0  28487-3 0  9999,2 45185  53.0538 150.7065 0000957  96.3822 263.7276 15.06400321307111
STARLINK-1224,45186,53.0368,0.0002895,16.00539987,270.9968514879811,274.84781484188443,1 45186U 20012J   25250.25001157  .00503346  12213-3  93471-3 0  9994,2 45186  53.0368 102.3425 0002895  82.4832  77.2850 16.00539987  5977
STARLINK-1225,45187,53.0551,0.000152,15.06399931,546.1591164003976,548.2644224262986,1 45187U 20012K   25250.13595932 -.00000081  00000+0  13446-4 0  9992,2 45187  53.0551 150.6228 0001520  97.4376 262.6786 15.06399931307164
STARLINK-1228,45188,53.0336,0.0005163,16.06276292,253.65236949941573,260.5038926437601,1 45188U 20012L   25248.34024567  .00651435  22146-3  85656-3 0  9998,2 45188  53.0336  49.5810 0005163 332.9230  27.1532 16.06276292308374
STARLINK-1230,45189,53.0564,0.000136,15.06393384,546.2899849380383,548.1736852611848,1 45189U 20012M   25250.00695636 -.00000679  00000+0 -26717-4 0  9991,2 45189  53.0564 151.2034 0001360  93.4181 266.6963 15.06393384304371
STARLINK-1234,45190,53.0535,0.000137,15.06417306,546.2097525626068,548.1072835345531,1 45190U 20012N   25249.89270717  .00021458  00000+0  14544-2 0  9996,2 45190  53.0535 111.7167 0001370  74.8233 285.2907 15.06417306307594
STARLINK-1237,45192,53.0477,0.0001176,16.04742393,260.5248560611162,262.086452973459,1 45192U 20012Q   25248.29511272  .00572392  16653-3  82866-3 0  9991,2 45192  53.0477 111.2591 0001176 159.0248 201.0832 16.04742393307569
STARLINK-1240,45194,53.0388,0.0005582,15.92361908,291.9499777407418,299.4006217921997,1 45194U 20012S   25250.25001157  .00347380  57083-4  10113-2 0  9993,2 45194  53.0388 102.9515 0005582  86.1947 272.8265 15.92361908  5966
STARLINK-1244,45196,53.0373,0.0002819,15.97028221,280.791260073157,284.5466224628435,1 45196U 20012U   25250.25001157  .00379375  69764-4  86019-3 0  9992,2 45196  53.0373 102.6883 0002819  94.1834 103.2487 15.97028221  5901
STARLINK-1269,45197,53.0551,0.0001533,15.0639154,546.1758268323429,548.2991466499789,1 45197U 20012V   25250.21703729  .00002827  00000+0  20866-3 0  9999,2 45197  53.0551 150.2635 0001533  98.5577 261.5586 15.06391540307155
STARLINK-1154,45198,53.0547,0.0001436,15.06397935,546.2234059113371,548.2123678348471,1 45198U 20012W   25249.94245549  .00002725  00000+0  20180-3 0  9995,2 45198  53.0547 131.4915 0001436  88.1507 271.9647 15.06397935307363
STARLINK-1199,45201,53.0532,0.0001273,15.06400837,546.3273961101504,548.0905891998809,1 45201U 20012Z   25250.08620895  .00003596  00000+0  26018-3 0  9991,2 45201  53.0532 130.8486 0001273  89.0035 271.1100 15.06400837307444
